{"type": "FeatureCollection", "features": [ {"type": "Feature", "properties": {"norad_id": 34955, "name": "COSMOS 2251 DEB", "group": "cosmos-2251-debris", "lat": -66.33698045521898, "lon": 121.27618233071082, "alt_km": 562.5851237099723, "timestamp": "2025-12-05T20:43:02.449112+00:00", "meta": {"OBJECT_NAME": "COSMOS 2251 DEB", "OBJECT_ID": "1993-036AEJ", "EPOCH": "2025-12-03T01:58:24.293568", "MEAN_MOTION": 15.00189355, "ECCENTRICITY": 0.00783052, "INCLINATION": 74.0373, "RA_OF_ASC_NODE": 266.1437, "ARG_OF_PERICENTER": 338.174, "MEAN_ANOMALY": 21.6115, "EPHEMERIS_TYPE": 0, "CLASSIFICATION_TYPE": "U", "NORAD_CAT_ID": 34955, "ELEMENT_SET_NO": 999, "REV_AT_EPOCH": 89889, "BSTAR": 0.0013091752, "MEAN_MOTION_DOT": 0.00017463, "MEAN_MOTION_DDOT": 0}, "tle": {"line1": "1 34955U 93036AEJ 25337.08222562  .00017463  00000+0  13092-2 0  9991", "line2": "2 34955  74.0373 266.1437 0078305 338.1740  21.6115 15.00189355898895"}}, "geometry": {"type": "Point", "coordinates": [121.27618233071082, -66.33698045521898]}}, {"type": "Feature", "properties": {"norad_id": 34962, "name": "COSMOS 2251 DEB", "group": "cosmos-2251-debris", "lat": -59.11825950353646, "lon": 177.6019440630289, "alt_km": 731.7197978035047, "timestamp": "2025-12-05T20:43:02.449122+00:00", "meta": {"OBJECT_NAME": "COSMOS 2251 DEB", "OBJECT_ID": "1993-036AER", "EPOCH": "2025-12-04T15:07:49.652256", "MEAN_MOTION": 14.46479821, "ECCENTRICITY": 0.0018617, "INCLINATION": 74.0306, "RA_OF_ASC_NODE": 208.5113, "ARG_OF_PERICENTER": 322.5014, "MEAN_ANOMALY": 37.4844, "EPHEMERIS_TYPE": 0, "CLASSIFICATION_TYPE": "U", "NORAD_CAT_ID": 34962, "ELEMENT_SET_NO": 999, "REV_AT_EPOCH": 87461, "BSTAR": 0.0008876, "MEAN_MOTION_DOT": 3.175e-05, "MEAN_MOTION_DDOT": 0}, "tle": {"line1": "1 34962U 93036AER 25338.63043579  .00003175  00000+0  88760-3 0  9990", "line2": "2 34962  74.0306 208.5113 0018617 322.5014  37.4844 14.46479821874618"}}, "geometry": {"type": "Point", "coordinates": [177.6019440630289, -59.11825950353646]}}, {"type": "Feature", "properties": {"norad_id": 34963, "name": "COSMOS 2251 DEB", "group": "cosmos-2251-debris", "lat": 72.77712852656146, "lon": 121.80109650805026, "alt_km": 744.9771940911487, "timestamp": "2025-12-05T20:43:02.449132+00:00", "meta": {"OBJECT_NAME": "COSMOS 2251 DEB", "OBJECT_ID": "1993-036AES", "EPOCH": "2025-12-03T12:04:13.425888", "MEAN_MOTION": 14.50919507, "ECCENTRICITY": 0.00426303, "INCLINATION": 74.172, "RA_OF_ASC_NODE": 59.975, "ARG_OF_PERICENTER": 258.0433, "MEAN_ANOMALY": 101.5948, "EPHEMERIS_TYPE": 0, "CLASSIFICATION_TYPE": "U", "NORAD_CAT_ID": 34963, "ELEMENT_SET_NO": 999, "REV_AT_EPOCH": 86667, "BSTAR": 0.0019734097, "MEAN_MOTION_DOT": 7.865e-05, "MEAN_MOTION_DDOT": 0}, "tle": {"line1": "1 34963U 93036AES 25337.50293317  .00007865  00000+0  19734-2 0  9997", "line2": "2 34963  74.1720  59.9750 0042630 258.0433 101.5948 14.50919507866675"}}, "geometry": {"type": "Point", "coordinates": [121.80109650805026, 72.77712852656146]}}, {"type": "Feature", "properties": {"norad_id": 34964, "name": "COSMOS 2251 DEB", "group": "cosmos-2251-debris", "lat": -73.88137008114494, "lon": -84.23959545708261, "alt_km": 801.662622322021, "timestamp": "2025-12-05T20:43:02.449142+00:00", "meta": {"OBJECT_NAME": "COSMOS 2251 DEB", "OBJECT_ID": "1993-036AET", "EPOCH": "2025-12-01T10:51:07.970112", "MEAN_MOTION": 14.00515212, "ECCENTRICITY": 0.02132053, "INCLINATION": 73.9732, "RA_OF_ASC_NODE": 7.4842, "ARG_OF_PERICENTER": 228.1536, "MEAN_ANOMALY": 130.1229, "EPHEMERIS_TYPE": 0, "CLASSIFICATION_TYPE": "U", "NORAD_CAT_ID": 34964, "ELEMENT_SET_NO": 999, "REV_AT_EPOCH": 84320, "BSTAR": 0.0017784594, "MEAN_MOTION_DOT": 3.191e-05, "MEAN_MOTION_DDOT": 0}, "tle": {"line1": "1 34964U 93036AET 25335.45217558  .00003191  00000+0  17785-2 0  9995", "line2": "2 34964  73.9732   7.4842 0213205 228.1536 130.1229 14.00515212843200"}}, "geometry": {"type": "Point", "coordinates": [-84.23959545708261, -73.88137008114494]}}, {"type": "Feature", "properties": {"norad_id": 34965, "name": "COSMOS 2251 DEB", "group": "cosmos-2251-debris", "lat": -47.26378309179117, "lon": -20.628002866458402, "alt_km": 721.8940022243651, "timestamp": "2025-12-05T20:43:02.449152+00:00", "meta": {"OBJECT_NAME": "COSMOS 2251 DEB", "OBJECT_ID": "1993-036AEU", "EPOCH": "2025-12-03T17:56:13.193952", "MEAN_MOTION": 14.48667662, "ECCENTRICITY": 0.00265132, "INCLINATION": 74.0501, "RA_OF_ASC_NODE": 145.3009, "ARG_OF_PERICENTER": 273.8401, "MEAN_ANOMALY": 85.9727, "EPHEMERIS_TYPE": 0, "CLASSIFICATION_TYPE": "U", "NORAD_CAT_ID": 34965, "ELEMENT_SET_NO": 999, "REV_AT_EPOCH": 86983, "BSTAR": 0.00048063509, "MEAN_MOTION_DOT": 1.791e-05, "MEAN_MOTION_DDOT": 0}, "tle": {"line1": "1 34965U 93036AEU 25337.74737493  .00001791  00000+0  48064-3 0  9994", "line2": "2 34965  74.0501 145.3009 0026513 273.8401  85.9727 14.48667662869832"}}, "geometry": {"type": "Point", "coordinates": [-20.628002866458402, -47.26378309179117]}}, {"type": "Feature", "properties": {"norad_id": 34967, "name": "COSMOS 2251 DEB", "group": "cosmos-2251-debris", "lat": -64.97953820753057, "lon": 124.64308608503512, "alt_km": 777.2405160877379, "timestamp": "2025-12-05T20:43:02.449162+00:00", "meta": {"OBJECT_NAME": "COSMOS 2251 DEB", "OBJECT_ID": "1993-036AEW", "EPOCH": "2025-12-01T02:30:41.683104", "MEAN_MOTION": 14.44168549, "ECCENTRICITY": 0.00374829, "INCLINATION": 73.9933, "RA_OF_ASC_NODE": 275.5612, "ARG_OF_PERICENTER": 64.8384, "MEAN_ANOMALY": 295.6653, "EPHEMERIS_TYPE": 0, "CLASSIFICATION_TYPE": "U", "NORAD_CAT_ID": 34967, "ELEMENT_SET_NO": 999, "REV_AT_EPOCH": 64789, "BSTAR": 0.00079995093, "MEAN_MOTION_DOT": 2.741e-05, "MEAN_MOTION_DDOT": 0}, "tle": {"line1": "1 34967U 93036AEW 25335.10464911  .00002741  00000+0  79995-3 0  9999", "line2": "2 34967  73.9933 275.5612 0037482  64.8384 295.6653 14.44168549647896"}}, "geometry": {"type": "Point", "coordinates": [124.64308608503512, -64.97953820753057]}}, {"type": "Feature", "properties": {"norad_id": 34968, "name": "COSMOS 2251 DEB", "group": "cosmos-2251-debris", "lat": 73.85656085683999, "lon": -1.216585848032352, "alt_km": 666.5159252948179, "timestamp": "2025-12-05T20:43:02.449172+00:00", "meta": {"OBJECT_NAME": "COSMOS 2251 DEB", "OBJECT_ID": "1993-036AEX", "EPOCH": "2025-12-04T11:23:51.945792", "MEAN_MOTION": 14.59382694, "ECCENTRICITY": 0.0086243, "INCLINATION": 74.039, "RA_OF_ASC_NODE": 262.8231, "ARG_OF_PERICENTER": 25.2675, "MEAN_ANOMALY": 335.267, "EPHEMERIS_TYPE": 0, "CLASSIFICATION_TYPE": "U", "NORAD_CAT_ID": 34968, "ELEMENT_SET_NO": 999, "REV_AT_EPOCH": 88357, "BSTAR": 0.00037097, "MEAN_MOTION_DOT": 1.818e-05, "MEAN_MOTION_DDOT": 0}, "tle": {"line1": "1 34968U 93036AEX 25338.47490678  .00001818  00000+0  37097-3 0  9993", "line2": "2 34968  74.0390 262.8231 0086243  25.2675 335.2670 14.59382694883577"}}, "geometry": {"type": "Point", "coordinates": [-1.216585848032352, 73.85656085683999]}}, {"type": "Feature", "properties": {"norad_id": 34969, "name": "COSMOS 2251 DEB", "group": "cosmos-2251-debris", "lat": 44.634836732955144, "lon": -160.73270973459051, "alt_km": 737.8998098633192, "timestamp": "2025-12-05T20:43:02.449208+00:00", "meta": {"OBJECT_NAME": "COSMOS 2251 DEB", "OBJECT_ID": "1993-036AEY", "EPOCH": "2025-12-04T20:37:39.572256", "MEAN_MOTION": 14.32236918, "ECCENTRICITY": 0.0074071, "INCLINATION": 74.0141, "RA_OF_ASC_NODE": 37.5419, "ARG_OF_PERICENTER": 172.6306, "MEAN_ANOMALY": 187.5953, "EPHEMERIS_TYPE": 0, "CLASSIFICATION_TYPE": "U", "NORAD_CAT_ID": 34969, "ELEMENT_SET_NO": 999, "REV_AT_EPOCH": 65024, "BSTAR": 0.00058667, "MEAN_MOTION_DOT": 1.605e-05, "MEAN_MOTION_DDOT": 0}, "tle": {"line1": "1 34969U 93036AEY 25338.85948579  .00001605  00000+0  58667-3 0  9994", "line2": "2 34969  74.0141  37.5419 0074071 172.6306 187.5953 14.32236918650247"}}, "geometry": {"type": "Point", "coordinates": [-160.73270973459051, 44.634836732955144]}}, {"type": "Feature", "properties": {"norad_id": 34971, "name": "COSMOS 2251 DEB", "group": "cosmos-2251-debris", "lat": -62.81635070668109, "lon": 152.1096362577609, "alt_km": 707.0696344309736, "timestamp": "2025-12-05T20:43:02.449218+00:00", "meta": {"OBJECT_NAME": "COSMOS 2251 DEB", "OBJECT_ID": "1993-036AFA", "EPOCH": "2025-12-04T04:04:33.254112", "MEAN_MOTION": 14.55612791, "ECCENTRICITY": 0.00699688, "INCLINATION": 73.9782, "RA_OF_ASC_NODE": 301.3068, "ARG_OF_PERICENTER": 169.1818, "MEAN_ANOMALY": 207.5998, "EPHEMERIS_TYPE": 0, "CLASSIFICATION_TYPE": "U", "NORAD_CAT_ID": 34971, "ELEMENT_SET_NO": 999, "REV_AT_EPOCH": 66048, "BSTAR": 0.00032049169, "MEAN_MOTION_DOT": 1.415e-05, "MEAN_MOTION_DDOT": 0}, "tle": {"line1": "1 34971U 93036AFA 25338.16982933  .00001415  00000+0  32049-3 0  9998", "line2": "2 34971  73.9782 301.3068 0069968 169.1818 207.5998 14.55612791660480"}}, "geometry": {"type": "Point", "coordinates": [152.1096362577609, -62.81635070668109]}}, {"type": "Feature", "properties": {"norad_id": 34972, "name": "COSMOS 2251 DEB", "group": "cosmos-2251-debris", "lat": 65.9743186853614, "lon": 103.3954057976265, "alt_km": 666.9433374262417, "timestamp": "2025-12-05T20:43:02.449229+00:00", "meta": {"OBJECT_NAME": "COSMOS 2251 DEB", "OBJECT_ID": "1993-036AFB", "EPOCH": "2025-12-03T06:34:34.182336", "MEAN_MOTION": 14.72590746, "ECCENTRICITY": 0.0034486, "INCLINATION": 73.9887, "RA_OF_ASC_NODE": 68.345, "ARG_OF_PERICENTER": 228.4328, "MEAN_ANOMALY": 162.7226, "EPHEMERIS_TYPE": 0, "CLASSIFICATION_TYPE": "U", "NORAD_CAT_ID": 34972, "ELEMENT_SET_NO": 999, "REV_AT_EPOCH": 87511, "BSTAR": 0.0021523, "MEAN_MOTION_DOT": 0.0001382, "MEAN_MOTION_DDOT": 0}, "tle": {"line1": "1 34972U 93036AFB 25337.27400674  .00013820  00000+0  21523-2 0  9994", "line2": "2 34972  73.9887  68.3450 0034486 228.4328 162.7226 14.72590746875112"}}, "geometry": {"type": "Point", "coordinates": [103.3954057976265, 65.9743186853614]}}]}